IRIDIUM 73 [-]          
1 25344U 98032C   23106.27870216  .00001051  00000+0  26727-3 0  9998
2 25344  86.4478  22.8169 0002737  97.6804 262.4711 14.49822741315619
IRIDIUM 82 [-]          
1 25467U 98051A   23106.52877488  .00015698  00000+0  10058-2 0  9992
2 25467  86.3932 125.9234 0155286 339.2313  20.2649 14.98903388304210
IRIDIUM 2 [-]           
1 25527U 98066A   23106.29392513  .00035433  00000+0  11351-2 0  9996
2 25527  85.5279 209.3117 0008443 155.5276 204.6375 15.32184638341682
